[{"OBJECT_NAME":"STARLINK-3881","OBJECT_ID":"2022-049X","EPOCH":"2026-03-09T23:17:27.211776","MEAN_MOTION":15.08844569,"ECCENTRICITY":0.00019733,"INCLINATION":53.2189,"RA_OF_ASC_NODE":57.85,"ARG_OF_PERICENTER":119.2801,"MEAN_ANOMALY":240.8388,"EPHEMERIS_TYPE":0,"CLASSIFICATION_TYPE":"U","NORAD_CAT_ID":52472,"ELEMENT_SET_NO":999,"REV_AT_EPOCH":21229,"BSTAR":-5.9160812e-5,"MEAN_MOTION_DOT":-1.23e-5,"MEAN_MOTION_DDOT":0},{"OBJECT_NAME":"DELTA 1 DEB","OBJECT_ID":"1978-026BX","EPOCH":"2026-03-09T21:34:36.806304","MEAN_MOTION":15.0275865,"ECCENTRICITY":0.00371244,"INCLINATION":98.0194,"RA_OF_ASC_NODE":65.5332,"ARG_OF_PERICENTER":51.7385,"MEAN_ANOMALY":308.7169,"EPHEMERIS_TYPE":0,"CLASSIFICATION_TYPE":"U","NORAD_CAT_ID":12230,"ELEMENT_SET_NO":999,"REV_AT_EPOCH":36609,"BSTAR":0.0014350783,"MEAN_MOTION_DOT":0.00019449,"MEAN_MOTION_DDOT":0}]
